{
  "type": "FeatureCollection",
  "features": [
    {
      "type": "Feature",
      "properties": {
        "norad_id": 30389,
        "name": "FENGYUN 1C DEB",
        "group": "fengyun-1c-debris",
        "lat": 48.0230183922277,
        "lon": 71.95960840441842,
        "alt_km": 747.7434996398188,
        "timestamp": "2025-12-26T03:50:12.369312+00:00",
        "meta_object_name": "FENGYUN 1C DEB",
        "meta_object_id": "1999-025ADC",
        "meta_epoch": "2025-12-25T18:11:48.293376",
        "meta_mean_motion": 14.4425094,
        "meta_eccentricity": 0.0014701,
        "meta_inclination": 98.8368,
        "meta_ra_of_asc_node": 81.4998,
        "meta_arg_of_pericenter": 186.6642,
        "meta_mean_anomaly": 295.1215,
        "meta_ephemeris_type": 0,
        "meta_classification_type": "U",
        "meta_norad_cat_id": 30389,
        "meta_element_set_no": 999,
        "meta_rev_at_epoch": 97974,
        "meta_bstar": 0.0024357,
        "meta_mean_motion_dot": 8.341e-05,
        "meta_mean_motion_ddot": 0,
        "tle_line1": "1 30389U 99025ADC 25359.75819784  .00008341  00000+0  24357-2 0  9999",
        "tle_line2": "2 30389  98.8368  81.4998 0014701 186.6642 295.1215 14.44250940979746"
      },
      "geometry": {
        "type": "Point",
        "coordinates": [
          71.95960840441842,
          48.0230183922277
        ]
      }
    },
    {
      "type": "Feature",
      "properties": {
        "norad_id": 30390,
        "name": "FENGYUN 1C DEB",
        "group": "fengyun-1c-debris",
        "lat": -77.83200718512254,
        "lon": 129.6182360297295,
        "alt_km": 842.5405090466538,
        "timestamp": "2025-12-26T03:50:12.369342+00:00",
        "meta_object_name": "FENGYUN 1C DEB",
        "meta_object_id": "1999-025ADD",
        "meta_epoch": "2025-12-24T05:19:11.456832",
        "meta_mean_motion": 14.29826892,
        "meta_eccentricity": 0.00677338,
        "meta_inclination": 98.8223,
        "meta_ra_of_asc_node": 81.5783,
        "meta_arg_of_pericenter": 131.6584,
        "meta_mean_anomaly": 255.3289,
        "meta_ephemeris_type": 0,
        "meta_classification_type": "U",
        "meta_norad_cat_id": 30390,
        "meta_element_set_no": 999,
        "meta_rev_at_epoch": 97548,
        "meta_bstar": 0.0017392471,
        "meta_mean_motion_dot": 4.542e-05,
        "meta_mean_motion_ddot": 0,
        "tle_line1": "1 30390U 99025ADD 25358.22166038  .00004542  00000+0  17392-2 0  9999",
        "tle_line2": "2 30390  98.8223  81.5783 0067733 131.6584 255.3289 14.29826892975483"
      },
      "geometry": {
        "type": "Point",
        "coordinates": [
          129.6182360297295,
          -77.83200718512254
        ]
      }
    },
    {
      "type": "Feature",
      "properties": {
        "norad_id": 30391,
        "name": "FENGYUN 1C DEB",
        "group": "fengyun-1c-debris",
        "lat": -76.75298502476235,
        "lon": -175.05216772886217,
        "alt_km": 803.226900878466,
        "timestamp": "2025-12-26T03:50:12.369355+00:00",
        "meta_object_name": "FENGYUN 1C DEB",
        "meta_object_id": "1999-025ADE",
        "meta_epoch": "2025-12-25T15:20:25.069056",
        "meta_mean_motion": 14.16293504,
        "meta_eccentricity": 0.0072073,
        "meta_inclination": 98.7794,
        "meta_ra_of_asc_node": 45.4644,
        "meta_arg_of_pericenter": 225.0847,
        "meta_mean_anomaly": 261.1349,
        "meta_ephemeris_type": 0,
        "meta_classification_type": "U",
        "meta_norad_cat_id": 30391,
        "meta_element_set_no": 999,
        "meta_rev_at_epoch": 97061,
        "meta_bstar": 0.0011465,
        "meta_mean_motion_dot": 2.288e-05,
        "meta_mean_motion_ddot": 0,
        "tle_line1": "1 30391U 99025ADE 25359.63917904  .00002288  00000+0  11465-2 0  9992",
        "tle_line2": "2 30391  98.7794  45.4644 0072073 225.0847 261.1349 14.16293504970610"
      },
      "geometry": {
        "type": "Point",
        "coordinates": [
          -175.05216772886217,
          -76.75298502476235
        ]
      }
    },
    {
      "type": "Feature",
      "properties": {
        "norad_id": 30392,
        "name": "FENGYUN 1C DEB",
        "group": "fengyun-1c-debris",
        "lat": -3.8089867499098484,
        "lon": -162.20817117350072,
        "alt_km": 963.0463443563349,
        "timestamp": "2025-12-26T03:50:12.369367+00:00",
        "meta_object_name": "FENGYUN 1C DEB",
        "meta_object_id": "1999-025ADF",
        "meta_epoch": "2025-12-25T13:54:17.859168",
        "meta_mean_motion": 14.07482919,
        "meta_eccentricity": 0.018042,
        "meta_inclination": 98.7853,
        "meta_ra_of_asc_node": 17.817,
        "meta_arg_of_pericenter": 320.6199,
        "meta_mean_anomaly": 164.9038,
        "meta_ephemeris_type": 0,
        "meta_classification_type": "U",
        "meta_norad_cat_id": 30392,
        "meta_element_set_no": 999,
        "meta_rev_at_epoch": 96851,
        "meta_bstar": 0.00066813,
        "meta_mean_motion_dot": 1.261e-05,
        "meta_mean_motion_ddot": 0,
        "tle_line1": "1 30392U 99025ADF 25359.57937337  .00001261  00000+0  66813-3 0  9996",
        "tle_line2": "2 30392  98.7853  17.8170 0180420 320.6199 164.9038 14.07482919968513"
      },
      "geometry": {
        "type": "Point",
        "coordinates": [
          -162.20817117350072,
          -3.8089867499098484
        ]
      }
    },
    {
      "type": "Feature",
      "properties": {
        "norad_id": 30393,
        "name": "FENGYUN 1C DEB",
        "group": "fengyun-1c-debris",
        "lat": -48.79800676895211,
        "lon": -132.6797269385191,
        "alt_km": 853.3864399559925,
        "timestamp": "2025-12-26T03:50:12.369378+00:00",
        "meta_object_name": "FENGYUN 1C DEB",
        "meta_object_id": "1999-025ADG",
        "meta_epoch": "2025-12-25T02:58:17.374944",
        "meta_mean_motion": 13.98992816,
        "meta_eccentricity": 0.00701162,
        "meta_inclination": 99.1639,
        "meta_ra_of_asc_node": 56.9092,
        "meta_arg_of_pericenter": 225.8144,
        "meta_mean_anomaly": 188.5559,
        "meta_ephemeris_type": 0,
        "meta_classification_type": "U",
        "meta_norad_cat_id": 30393,
        "meta_element_set_no": 999,
        "meta_rev_at_epoch": 96503,
        "meta_bstar": 9.5115025e-05,
        "meta_mean_motion_dot": 9.5e-07,
        "meta_mean_motion_ddot": 0,
        "tle_line1": "1 30393U 99025ADG 25359.12381221  .00000095  00000+0  95115-4 0  9995",
        "tle_line2": "2 30393  99.1639  56.9092 0070116 225.8144 188.5559 13.98992816965039"
      },
      "geometry": {
        "type": "Point",
        "coordinates": [
          -132.6797269385191,
          -48.79800676895211
        ]
      }
    },
    {
      "type": "Feature",
      "properties": {
        "norad_id": 30394,
        "name": "FENGYUN 1C DEB",
        "group": "fengyun-1c-debris",
        "lat": 43.928382800406546,
        "lon": 19.524217360652415,
        "alt_km": 843.3144308100264,
        "timestamp": "2025-12-26T03:50:12.369388+00:00",
        "meta_object_name": "FENGYUN 1C DEB",
        "meta_object_id": "1999-025ADH",
        "meta_epoch": "2025-12-25T14:27:05.779008",
        "meta_mean_motion": 13.95795337,
        "meta_eccentricity": 0.0089762,
        "meta_inclination": 99.4335,
        "meta_ra_of_asc_node": 28.1689,
        "meta_arg_of_pericenter": 66.9183,
        "meta_mean_anomaly": 57.2763,
        "meta_ephemeris_type": 0,
        "meta_classification_type": "U",
        "meta_norad_cat_id": 30394,
        "meta_element_set_no": 999,
        "meta_rev_at_epoch": 96283,
        "meta_bstar": 0.0003852,
        "meta_mean_motion_dot": 4.98e-06,
        "meta_mean_motion_ddot": 0,
        "tle_line1": "1 30394U 99025ADH 25359.60215022  .00000498  00000+0  38520-3 0  9997",
        "tle_line2": "2 30394  99.4335  28.1689 0089762  66.9183  57.2763 13.95795337962833"
      },
      "geometry": {
        "type": "Point",
        "coordinates": [
          19.524217360652415,
          43.928382800406546
        ]
      }
    },
    {
      "type": "Feature",
      "properties": {
        "norad_id": 30395,
        "name": "FENGYUN 1C DEB",
        "group": "fengyun-1c-debris",
        "lat": -56.206090473056506,
        "lon": -178.2534496902798,
        "alt_km": 954.2765286079803,
        "timestamp": "2025-12-26T03:50:12.369398+00:00",
        "meta_object_name": "FENGYUN 1C DEB",
        "meta_object_id": "1999-025ADJ",
        "meta_epoch": "2025-12-25T13:31:31.060416",
        "meta_mean_motion": 13.96709429,
        "meta_eccentricity": 0.0159797,
        "meta_inclination": 98.93,
        "meta_ra_of_asc_node": 14.7545,
        "meta_arg_of_pericenter": 350.8774,
        "meta_mean_anomaly": 131.3282,
        "meta_ephemeris_type": 0,
        "meta_classification_type": "U",
        "meta_norad_cat_id": 30395,
        "meta_element_set_no": 999,
        "meta_rev_at_epoch": 96202,
        "meta_bstar": 0.00056283,
        "meta_mean_motion_dot": 8.26e-06,
        "meta_mean_motion_ddot": 0,
        "tle_line1": "1 30395U 99025ADJ 25359.56355394  .00000826  00000+0  56283-3 0  9991",
        "tle_line2": "2 30395  98.9300  14.7545 0159797 350.8774 131.3282 13.96709429962028"
      },
      "geometry": {
        "type": "Point",
        "coordinates": [
          -178.2534496902798,
          -56.206090473056506
        ]
      }
    }
  ]
}